COSMOS 2361             
1 25590U 98076A   26063.85977686  .00000084  00000+0  73895-4 0  9991
2 25590  82.9311 283.3631 0032317  39.2209 331.6692 13.73226971362387
COSMOS 2378             
1 26818U 01023A   26063.15570517  .00000093  00000+0  83176-4 0  9999
2 26818  82.9260 299.3715 0032653 342.6384 132.6316 13.74150560240414
COSMOS 2389             
1 27436U 02026A   26063.47304639  .00000064  00000+0  50249-4 0  9998
2 27436  82.9466 246.4777 0046108 190.3342 198.5288 13.75163874192724
COSMOS 2398             
1 27818U 03023A   26063.50925808  .00000056  00000+0  45366-4 0  9996
2 27818  82.9484 212.4348 0030239 244.6243 182.0487 13.72394835139388
COSMOS 2407             
1 28380U 04028A   26063.38285099  .00000089  00000+0  75373-4 0  9991
2 28380  82.9639 152.4539 0039316 183.5159 247.7369 13.76324335 85461
COSMOS 2414             
1 28521U 05002A   26063.49961109  .00000129  00000+0  95009-4 0  9999
2 28521  82.9492 122.8443 0038678 267.7133  91.9601 13.87914726 69299
COSMOS 2429             
1 32052U 07038A   26063.13904371  .00000086  00000+0  73038-4 0  9993
2 32052  82.9776 283.3145 0038601 166.9274 193.2893 13.75157697927219
COSMOS 2454             
1 35635U 09039A   26063.53672292  .00000097  00000+0  65885-4 0  9997
2 35635  82.9535 106.6412 0018845 194.3734 276.6219 13.89940564842863
COSMOS 2463             
1 36519U 10017A   26063.23388235  .00000077  00000+0  68471-4 0  9997
2 36519  82.9639 326.8387 0037383  62.2084  58.1849 13.71657354793541
