[{"OBJECT_NAME":"COSMOS 2361","OBJECT_ID":"1998-076A","EPOCH":"2026-03-04T20:38:04.720704","MEAN_MOTION":13.73226971,"ECCENTRICITY":0.0032317,"INCLINATION":82.9311,"RA_OF_ASC_NODE":283.3631,"ARG_OF_PERICENTER":39.2209,"MEAN_ANOMALY":331.6692,"EPHEMERIS_TYPE":0,"CLASSIFICATION_TYPE":"U","NORAD_CAT_ID":25590,"ELEMENT_SET_NO":999,"REV_AT_EPOCH":36238,"BSTAR":7.3895e-5,"MEAN_MOTION_DOT":8.4e-7,"MEAN_MOTION_DDOT":0},{"OBJECT_NAME":"COSMOS 2378","OBJECT_ID":"2001-023A","EPOCH":"2026-03-04T03:44:12.926688","MEAN_MOTION":13.7415056,"ECCENTRICITY":0.00326532,"INCLINATION":82.926,"RA_OF_ASC_NODE":299.3715,"ARG_OF_PERICENTER":342.6384,"MEAN_ANOMALY":132.6316,"EPHEMERIS_TYPE":0,"CLASSIFICATION_TYPE":"U","NORAD_CAT_ID":26818,"ELEMENT_SET_NO":999,"REV_AT_EPOCH":24041,"BSTAR":8.3175967e-5,"MEAN_MOTION_DOT":9.3e-7,"MEAN_MOTION_DDOT":0},{"OBJECT_NAME":"COSMOS 2389","OBJECT_ID":"2002-026A","EPOCH":"2026-03-04T11:21:11.208096","MEAN_MOTION":13.75163874,"ECCENTRICITY":0.00461089,"INCLINATION":82.9466,"RA_OF_ASC_NODE":246.4777,"ARG_OF_PERICENTER":190.3342,"MEAN_ANOMALY":198.5288,"EPHEMERIS_TYPE":0,"CLASSIFICATION_TYPE":"U","NORAD_CAT_ID":27436,"ELEMENT_SET_NO":999,"REV_AT_EPOCH":19272,"BSTAR":5.0249477e-5,"MEAN_MOTION_DOT":6.4e-7,"MEAN_MOTION_DDOT":0},{"OBJECT_NAME":"COSMOS 2398","OBJECT_ID":"2003-023A","EPOCH":"2026-03-04T12:13:19.898112","MEAN_MOTION":13.72394835,"ECCENTRICITY":0.00302399,"INCLINATION":82.9484,"RA_OF_ASC_NODE":212.4348,"ARG_OF_PERICENTER":244.6243,"MEAN_ANOMALY":182.0487,"EPHEMERIS_TYPE":0,"CLASSIFICATION_TYPE":"U","NORAD_CAT_ID":27818,"ELEMENT_SET_NO":999,"REV_AT_EPOCH":13938,"BSTAR":4.5365703e-5,"MEAN_MOTION_DOT":5.6e-7,"MEAN_MOTION_DDOT":0},{"OBJECT_NAME":"COSMOS 2407","OBJECT_ID":"2004-028A","EPOCH":"2026-03-04T09:11:18.325536","MEAN_MOTION":13.76324335,"ECCENTRICITY":0.00393162,"INCLINATION":82.9639,"RA_OF_ASC_NODE":152.4539,"ARG_OF_PERICENTER":183.5159,"MEAN_ANOMALY":247.7369,"EPHEMERIS_TYPE":0,"CLASSIFICATION_TYPE":"U","NORAD_CAT_ID":28380,"ELEMENT_SET_NO":999,"REV_AT_EPOCH":8546,"BSTAR":7.5373222e-5,"MEAN_MOTION_DOT":8.9e-7,"MEAN_MOTION_DDOT":0},{"OBJECT_NAME":"COSMOS 2414","OBJECT_ID":"2005-002A","EPOCH":"2026-03-04T11:59:26.398176","MEAN_MOTION":13.87914726,"ECCENTRICITY":0.0038678,"INCLINATION":82.9492,"RA_OF_ASC_NODE":122.8443,"ARG_OF_PERICENTER":267.7133,"MEAN_ANOMALY":91.9601,"EPHEMERIS_TYPE":0,"CLASSIFICATION_TYPE":"U","NORAD_CAT_ID":28521,"ELEMENT_SET_NO":999,"REV_AT_EPOCH":6929,"BSTAR":9.5009377e-5,"MEAN_MOTION_DOT":1.29e-6,"MEAN_MOTION_DDOT":0},{"OBJECT_NAME":"COSMOS 2429","OBJECT_ID":"2007-038A","EPOCH":"2026-03-04T03:20:13.376544","MEAN_MOTION":13.75157697,"ECCENTRICITY":0.0038601,"INCLINATION":82.9776,"RA_OF_ASC_NODE":283.3145,"ARG_OF_PERICENTER":166.9274,"MEAN_ANOMALY":193.2893,"EPHEMERIS_TYPE":0,"CLASSIFICATION_TYPE":"U","NORAD_CAT_ID":32052,"ELEMENT_SET_NO":999,"REV_AT_EPOCH":92721,"BSTAR":7.303754e-5,"MEAN_MOTION_DOT":8.6e-7,"MEAN_MOTION_DDOT":0},{"OBJECT_NAME":"COSMOS 2454","OBJECT_ID":"2009-039A","EPOCH":"2026-03-04T12:52:52.860288","MEAN_MOTION":13.89940564,"ECCENTRICITY":0.0018845,"INCLINATION":82.9535,"RA_OF_ASC_NODE":106.6412,"ARG_OF_PERICENTER":194.3734,"MEAN_ANOMALY":276.6219,"EPHEMERIS_TYPE":0,"CLASSIFICATION_TYPE":"U","NORAD_CAT_ID":35635,"ELEMENT_SET_NO":999,"REV_AT_EPOCH":84286,"BSTAR":6.5885e-5,"MEAN_MOTION_DOT":9.7e-7,"MEAN_MOTION_DDOT":0},{"OBJECT_NAME":"COSMOS 2463","OBJECT_ID":"2010-017A","EPOCH":"2026-03-04T05:36:47.435040","MEAN_MOTION":13.71657354,"ECCENTRICITY":0.00373835,"INCLINATION":82.9639,"RA_OF_ASC_NODE":326.8387,"ARG_OF_PERICENTER":62.2084,"MEAN_ANOMALY":58.1849,"EPHEMERIS_TYPE":0,"CLASSIFICATION_TYPE":"U","NORAD_CAT_ID":36519,"ELEMENT_SET_NO":999,"REV_AT_EPOCH":79354,"BSTAR":6.8470642e-5,"MEAN_MOTION_DOT":7.7e-7,"MEAN_MOTION_DDOT":0}]
